ORBCOMM FM33            
1 25983U 99065D   25216.93298643  .00000787  00000+0  29213-3 0  9997
2 25983  45.0283 127.1898 0009572 313.3736  46.6316 14.40078660343097
ORBCOMM FM36            
1 25984U 99065E   25216.75314358  .00000830  00000+0  31733-3 0  9999
2 25984  45.0377 220.7255 0003820 230.5379 129.5132 14.38209838341413
ORBCOMM FM35            
1 25985U 99065F   25216.97630561  .00000685  00000+0  27544-3 0  9994
2 25985  45.0381 225.0898 0006228 279.8545  80.1600 14.37174089341809
ORBCOMM FM34            
1 25986U 99065G   25217.15019213  .00000562  00000+0  23433-3 0  9998
2 25986  45.0375 224.7263 0005818 249.0933 110.9293 14.37187961341981
ORBCOMM FM38            
1 33060U 08031A   25216.91089408  .00001480  00000+0  21410-3 0  9992
2 33060  48.4408  83.0227 0005217 250.4899 109.5453 14.81471278921974
ORBCOMM FM41            
1 33061U 08031B   25217.09194096  .00001418  00000+0  20823-3 0  9991
2 33061  48.4443  90.1079 0004386 236.7462 278.6709 14.81052110921924
ORBCOMM FM29            
1 33062U 08031C   25216.97876495  .00001459  00000+0  21295-3 0  9997
2 33062  48.4394  98.3964 0006040 235.4515 138.3486 14.81157570921387
ORBCOMM FM39            
1 33063U 08031D   25217.32511672  .00001303  00000+0  19964-3 0  9999
2 33063  48.4405 121.5603 0006793 209.6138 150.4393 14.79694944921491
